BankCode,bank_id,BankName,Country,primaryContactId,Telephone,Address_ID
405,6058,Braun-Torphy,Brazil,,65162-444,9
461,6058,"Bechtelar, Kohler and Bechtelar",Indonesia,,51367-011,404
460,6084,Kuhlman-Wiegand,Peru,,55289-258,268
421,6071,Mills Inc,Philippines,,42254-123,618
427,6000,Terry Group,Indonesia,,49999-520,983
454,6083,"Ortiz, Haley and Rath",Poland,,67544-102,280
461,6013,Swaniawski-Fadel,Philippines,,0143-9787,61
412,6096,Barton and Sons,China,,52553-001,514
468,6037,"Rutherford, Wilderman and Cummings",China,,41250-254,536
473,6004,Jaskolski-Reichel,Mexico,,64543-097,459
436,6015,Hammes LLC,Finland,,41190-604,334
418,6003,Marks Group,Japan,,63629-4205,147
404,6034,"Mertz, Vandervort and Satterfield",United Kingdom,,55154-3255,25
475,6018,Schowalter and Sons,Poland,,29300-140,719
436,6076,Hartmann and Sons,China,,0186-0520,974
486,6078,Hoeger-Larson,Pakistan,,17518-051,297
407,6035,Lang Group,Croatia,,11673-402,397
438,6057,Stehr LLC,Macedonia,,49288-0136,865
453,6009,Satterfield Inc,Comoros,,52261-2500,423
413,6017,Schroeder-Grimes,Russia,,49299-1092,790
453,6034,"Wiza, Maggio and Kuhlman",Russia,,49349-647,109
458,6094,Willms LLC,China,,49348-709,670
489,6028,Aufderhar LLC,Ivory Coast,,49981-002,327
415,6040,Bins Group,Indonesia,,51991-337,283
454,6082,Cummings Group,Portugal,,10812-068,796
488,6013,"Jast, Weissnat and Treutel",China,,62583-001,290
446,6065,Adams-Kiehn,Philippines,,61734-030,420
478,6099,"Kreiger, Grant and Reynolds",Cyprus,,53808-0843,726
433,6031,"Auer, Runolfsson and Emmerich",Russia,,53598-003,304
442,6008,Hoppe and Sons,China,,49902-5366,151
492,6035,Sipes and Sons,Brazil,,43419-314,744
475,6100,"Zieme, Cruickshank and Schroeder",Russia,,37000-136,387
417,6068,Kassulke-Denesik,Czech Republic,,63548-2341,329
482,6065,Hagenes-Feeney,Philippines,,53808-0960,873
460,6077,"Klocko, Gusikowski and Pacocha",Russia,,37808-462,559
429,6027,Hoeger-Rogahn,Poland,,62011-0067,333
496,6084,Hilll-Robel,Thailand,,41520-370,676
437,6040,Ondricka-Bayer,China,,44946-1024,203
437,6087,Bogan-Kiehn,Indonesia,,11118-1102,911
488,6083,Romaguera-Smith,China,,55316-668,878
441,6087,"Friesen, Kirlin and Gorczany",Peru,,53738-0711,738
449,6054,"Baumbach, Bernhard and Schuppe",Brazil,,76354-003,406
465,6064,Gutmann-Stamm,Greece,,63824-730,488
492,6028,Schimmel-Macejkovic,Philippines,,0409-7120,877
406,6059,Turner LLC,Mexico,,63187-046,960
439,6047,Harvey Inc,China,,55681-212,693
440,6086,Prohaska-Nitzsche,China,,68828-145,428
456,6078,McClure-Willms,China,,13537-067,666
479,6010,"Davis, Ledner and Abshire",Indonesia,,68428-035,618
490,6019,Satterfield-Wolff,China,,58503-034,33
495,6084,"Keebler, Becker and Toy",Russia,,52959-940,424
428,6094,"Doyle, Carter and Fay",Ireland,,15127-338,545
471,6099,Cremin LLC,China,,41520-522,434
418,6081,"Davis, Gibson and Schroeder",Indonesia,,55111-135,548
432,6009,Welch-Kris,Canada,,36987-2536,496
488,6097,Crooks and Sons,Finland,,15127-895,14
427,6071,Klein and Sons,Indonesia,,37000-386,854
439,6022,Muller Group,Slovenia,,51954-100,388
414,6052,"Howe, Krajcik and Steuber",Palestinian Territory,,43419-857,805
450,6023,"Bode, Pfeffer and Sanford",Peru,,63481-435,406
444,6066,McGlynn-Breitenberg,United Kingdom,,58118-3670,941
435,6082,Dibbert and Sons,Burkina Faso,,10345-023,45
465,6095,Gulgowski-Greenholt,Indonesia,,57520-0925,33
451,6050,Morar and Sons,Vietnam,,16590-050,602
445,6092,Hamill-Jast,Bangladesh,,51672-4057,215
456,6012,"O'Connell, Johnson and Denesik",Brazil,,63776-250,294
422,6055,"Romaguera, Ullrich and Schneider",Colombia,,51460-1112,732
497,6021,"Olson, Kemmer and Olson",Argentina,,36800-915,449
476,6011,Bechtelar Group,China,,43063-216,584
429,6058,Schowalter-Eichmann,Indonesia,,46122-208,16
419,6075,"Blanda, Kassulke and Will",Cuba,,51672-4034,113
400,6015,Mohr LLC,Nigeria,,68084-509,600
488,6066,Beier and Sons,China,,52959-730,321
427,6002,"Kessler, Bartell and Mueller",Cuba,,63824-360,582
479,6031,Rolfson-Stroman,Indonesia,,76466-500,899
433,6015,Crist-Hessel,Philippines,,0363-0855,879
419,6024,Johnson-Fritsch,China,,55754-123,195
437,6069,Wehner-Parker,China,,51393-6557,483
497,6055,"Jast, Braun and Monahan",Kazakhstan,,68788-9054,256
483,6061,Stoltenberg-Hackett,Nigeria,,60512-0010,134
423,6041,Kohler and Sons,China,,40046-0072,844
469,6076,O'Reilly-Pfannerstill,Costa Rica,,0179-0119,535
442,6058,Lakin and Sons,Ukraine,,0527-1726,53
482,6024,Feeney-Cassin,France,,76365-0101,437
438,6039,Nader-Beer,Ukraine,,60541-0706,996
457,6045,Ondricka Inc,Dominican Republic,,0409-7973,554
462,6067,Collins-Skiles,France,,16590-206,195
429,6096,Terry-Wilkinson,Philippines,,53200-001,903
416,6051,Langosh-Buckridge,Portugal,,0185-0649,488
435,6027,Zieme LLC,Russia,,49349-856,924
403,6092,Larkin LLC,Indonesia,,41250-013,77
420,6004,Cummerata-Koss,Saint Lucia,,55111-438,736
459,6034,Waters-Green,Armenia,,61748-054,841
467,6077,"Stark, Collier and Auer",Portugal,,63629-4638,194
486,6025,Wyman Inc,Canada,,67457-469,918
441,6030,"Cartwright, Gleichner and Stroman",United States,,0185-0017,127
449,6016,"Medhurst, Mills and Daugherty",United States,,49999-065,817
454,6096,Wolff-Abshire,Mexico,,24658-141,411
420,6063,Kub Inc,Mexico,,54575-154,720
423,6096,Simonis LLC,Jamaica,,0363-0407,930
418,6017,McClure Inc,Indonesia,,55505-154,351
452,6050,"Davis, Murphy and Koepp",China,,60512-6438,457
466,6048,"Gottlieb, Heller and Huel",China,,55154-6969,702
478,6091,Roberts LLC,Kazakhstan,,66758-048,495
427,6017,Schinner and Sons,France,,64117-535,747
432,6055,"Treutel, Bartell and Rempel",Russia,,0904-5828,217
408,6013,"Buckridge, Kuhn and Willms",China,,36987-2767,181
498,6042,"Marvin, Metz and Rodriguez",China,,60432-833,74
458,6055,"Jenkins, Schamberger and Terry",Chile,,0591-0349,180
444,6038,Hayes and Sons,Bulgaria,,55714-2296,476
459,6051,"Ondricka, Sauer and Raynor",Indonesia,,36800-737,440
415,6078,Altenwerth-Franecki,Russia,,52054-550,958
405,6087,"Moore, Gulgowski and Kertzmann",Norway,,52125-378,702
438,6004,"Miller, Leannon and Kassulke",Croatia,,50184-1020,719
459,6057,Bins-Kihn,Czech Republic,,68428-086,598
466,6098,"Cummerata, Raynor and Jerde",Ukraine,,63323-739,45
476,6052,Stark Group,Thailand,,48951-4067,592
448,6037,Shields-Kertzmann,Belarus,,55504-3763,426
469,6050,"Konopelski, Langosh and Mayert",Portugal,,64376-138,782
454,6068,Swaniawski LLC,Brazil,,68472-078,304
487,6090,Lind-Price,Argentina,,41167-4255,769
424,6037,Maggio-Stehr,Czech Republic,,65044-0719,612
444,6079,"Dickinson, Haley and Tremblay",Indonesia,,49348-196,842
473,6008,Hoppe-Morar,Serbia,,10578-047,755
486,6029,Sawayn-Kertzmann,China,,11673-279,607
455,6010,"Spencer, Schulist and Robel",Brazil,,50268-085,131
444,6011,Marvin-Batz,Indonesia,,49035-050,389
474,6018,Hermiston and Sons,Peru,,76237-142,987
472,6012,Purdy-Douglas,Indonesia,,66579-0008,296
418,6011,"Greenfelder, Lueilwitz and Tillman",Russia,,59726-160,481
410,6063,"Schumm, Cruickshank and Moen",Peru,,37205-614,765
417,6062,"Collier, Schamberger and Jakubowski",Argentina,,48951-7023,268
437,6055,Denesik-Johnston,Democratic Republic of the Congo,,63739-577,36
488,6095,Langworth Inc,Armenia,,0093-2203,542
409,6069,"Cole, Bashirian and Schaden",Vietnam,,0378-0047,547
497,6031,"Kub, Stiedemann and Kiehn",Latvia,,36800-081,575
440,6024,Senger-Hayes,Indonesia,,37808-854,432
417,6082,Hodkiewicz Group,Kyrgyzstan,,65649-211,125
441,6055,"Veum, McClure and Pfeffer",Indonesia,,65601-759,674
472,6058,Jenkins-Harber,Tanzania,,0904-3006,97
484,6006,Torp-Lubowitz,China,,0869-0218,718
431,6036,"Lindgren, Hamill and Wuckert",Czech Republic,,42023-113,546
498,6078,Armstrong-Kemmer,Vietnam,,48951-1218,910
419,6049,"Boyle, Beier and King",Cuba,,0310-0211,263
496,6090,"O'Hara, Corwin and Wisoky",China,,53448-0001,409
465,6058,Conn Group,United Kingdom,,35356-875,142
474,6021,Rice LLC,Japan,,0093-6903,790
447,6053,"Upton, Quitzon and Wiza",Iran,,24208-430,129
444,6010,Spinka and Sons,Ukraine,,54868-4991,941
436,6022,"O'Hara, Morar and Rutherford",Russia,,49571-002,296
453,6089,Pfeffer-Hirthe,Georgia,,49967-332,849
423,6073,Maggio-Welch,Ukraine,,0378-6897,648
450,6001,Bayer-Goodwin,Ukraine,,16729-090,591
415,6001,Schaden and Sons,Russia,,42346-200,499
406,6051,"Abbott, Denesik and Swaniawski",China,,55670-122,786
473,6057,Mohr-Zieme,China,,0363-0403,367
438,6093,"West, Gleason and Bartoletti",Portugal,,57344-125,377
474,6011,Bahringer-Wisozk,China,,60429-567,522
465,6061,Wolf and Sons,Portugal,,59401-001,741
427,6043,Dicki-Runte,Canada,,60760-175,45
460,6062,Hayes and Sons,China,,23155-047,501
497,6089,Baumbach Inc,Portugal,,13533-604,701
400,6074,Kunze-Ward,France,,21695-791,323
423,6100,Collier Group,Serbia,,49288-0665,357
492,6068,Hodkiewicz Group,Ukraine,,0268-0849,444
464,6003,Raynor and Sons,Portugal,,49348-855,316
471,6061,"Breitenberg, Schroeder and Reynolds",China,,53489-551,730
404,6050,Lang and Sons,Azerbaijan,,52389-153,871
459,6031,"Feil, Langosh and Hilll",United States,,34690-6001,10
462,6008,Reichert-Pacocha,United States,,36800-155,176
417,6045,Dach Inc,Ukraine,,51672-4109,65
429,6010,Hettinger-Bogisich,China,,16252-508,677
462,6012,"Pouros, Hamill and Bartoletti",Iran,,68745-2036,642
488,6016,Pacocha-Watsica,China,,49631-182,862
421,6034,"Schiller, Rath and Block",Peru,,36987-1264,584
473,6076,Shanahan-Hackett,Portugal,,16590-114,952
447,6058,O'Hara-Little,France,,52584-810,782
420,6082,Boehm Inc,Austria,,57472-004,95
452,6087,Brekke-Graham,China,,55154-2826,564
405,6084,Gorczany-Schinner,Bulgaria,,52125-803,249
417,6090,Schimmel-Parisian,China,,54575-936,56
439,6000,"Feil, Koelpin and Terry",Philippines,,61919-528,895
475,6035,Bahringer-Swaniawski,Bolivia,,51386-500,390
416,6023,Monahan and Sons,China,,43074-112,908
457,6030,"Bode, Walsh and Steuber",Philippines,,67877-292,383
431,6092,Jacobs LLC,China,,10096-4423,205
431,6030,Block Group,France,,14783-448,505
466,6063,McDermott-Flatley,Burkina Faso,,11084-106,642
485,6079,Wolf Inc,Indonesia,,63868-106,434
433,6016,Kessler Inc,Poland,,0430-0170,698
422,6007,"Parisian, Gutmann and Marks",Poland,,68180-323,699
478,6062,"Weber, Morissette and Friesen",China,,48951-8235,910
449,6053,Hoeger Inc,Indonesia,,65084-298,175
409,6090,"Bartell, Von and Feest",South Korea,,54575-155,71
489,6022,"Farrell, Hauck and Towne",Thailand,,67544-127,592
471,6014,Mraz-Lehner,Croatia,,0409-7965,911
444,6068,Kshlerin-Hodkiewicz,China,,60512-0013,938
431,6046,Howell and Sons,China,,41163-664,380
401,6066,Wolf-Wolf,Russia,,49967-549,605
475,6073,"Lang, Shields and Nader",Portugal,,61957-2107,113
452,6085,"Predovic, Parker and White",Finland,,13734-123,782
496,6039,"Mraz, Collier and Bogisich",China,,68788-0790,409
431,6021,Lang and Sons,China,,37808-450,826
478,6032,Mante and Sons,China,,63323-691,669
402,6003,"Kulas, Gibson and DuBuque",Pakistan,,42884-352,380
458,6094,Sauer-Bashirian,Peru,,11673-987,771
435,6034,Hayes-Jacobs,Nicaragua,,60505-2866,940
446,6014,Cartwright Inc,Canada,,63629-3770,996
497,6071,Leffler Group,China,,61221-010,101
474,6027,Strosin-Conroy,Afghanistan,,46672-606,342
492,6093,Jacobson-Reynolds,Russia,,49348-680,412
442,6044,Friesen-Gottlieb,France,,75981-210,760
469,6023,"Nikolaus, Little and Flatley",Poland,,54868-4325,702
435,6084,Hartmann Group,China,,63148-804,614
482,6039,Franecki-Oberbrunner,Venezuela,,41167-0934,376
414,6031,"Haley, Smitham and Medhurst",China,,68788-0225,976
481,6091,Reilly-Greenholt,Portugal,,64725-0017,584
495,6060,Nikolaus-Hintz,Sweden,,65293-427,904
452,6078,Zulauf-Goldner,Egypt,,17478-823,658
460,6028,Tromp-Berge,China,,58118-0459,497
417,6014,Davis LLC,Russia,,49349-737,505
415,6013,Heaney-Abshire,Mongolia,,0904-6360,430
489,6034,Kuvalis-Greenfelder,Indonesia,,0591-1119,759
453,6065,"Russel, Lemke and Bode",China,,47047-2444,288
421,6062,"Braun, Marvin and Mueller",Nigeria,,48951-8026,353
481,6053,Block-Hagenes,Indonesia,,11673-061,494
470,6060,Bashirian-Schmeler,China,,24236-167,508
443,6079,"Bahringer, Wolff and Waelchi",Egypt,,68084-054,34
409,6077,"Waelchi, Cassin and Kunze",China,,60505-2592,295
484,6079,Kertzmann-Little,Indonesia,,45865-347,791
445,6035,"Kilback, Ernser and Goldner",Indonesia,,50242-085,65
497,6090,"Kertzmann, Becker and Sipes",Brazil,,0781-9324,278
461,6081,Heidenreich Inc,United States,,68016-221,513
490,6074,Stark and Sons,Cuba,,0067-8100,363
403,6045,Adams Group,Uzbekistan,,16477-620,828
474,6100,Schuppe-Zboncak,Philippines,,70253-004,677
455,6061,Stehr-Kirlin,Brazil,,37808-476,179
430,6043,Wolf LLC,Estonia,,63174-172,796
463,6068,"Carter, Rutherford and Romaguera",Nicaragua,,0093-2268,344
494,6016,"Hyatt, Hintz and Zemlak",Russia,,0904-5736,884
435,6086,Treutel Inc,Nigeria,,0944-2963,441
416,6071,Wisozk Inc,Zambia,,61254-2001,770
463,6002,"Becker, Jast and Emmerich",Indonesia,,52685-398,936
406,6049,"Volkman, Kshlerin and Watsica",China,,63402-206,819
413,6051,Kling-Cronin,Nigeria,,54838-115,790
417,6070,Wilkinson-Bogan,Portugal,,60429-052,333
419,6074,"Senger, Kuhn and Bernier",China,,63739-809,294
417,6024,Cremin-Quitzon,Argentina,,68016-019,134
496,6001,Halvorson Inc,Indonesia,,63843-729,398
447,6021,"Bashirian, Koelpin and Rempel",Peru,,55154-6922,93
458,6056,Medhurst-Gulgowski,Denmark,,52125-327,398
480,6006,Nienow-Kessler,Canada,,41250-177,27
444,6093,"Romaguera, Dibbert and Hartmann",Russia,,55312-035,516
405,6012,Effertz Inc,China,,52125-535,630
421,6025,"Hodkiewicz, Hilpert and Stokes",Kenya,,62856-125,939
480,6069,"Borer, Dicki and Krajcik",China,,16590-300,249
497,6032,Gutmann LLC,France,,49348-840,292
492,6030,"White, Auer and Kohler",Czech Republic,,68196-498,762
433,6074,"Cole, Kuphal and Conn",Uruguay,,48951-8139,949
434,6030,"Flatley, Runolfsson and Gleichner",Mongolia,,48951-1084,719
427,6030,Rempel-Ritchie,Indonesia,,55118-545,577
444,6038,Conroy and Sons,China,,52125-159,860
474,6079,Koepp-Halvorson,Brazil,,64578-0082,171
441,6007,Spencer-MacGyver,Ireland,,0781-2051,794
467,6057,Mraz-Armstrong,Brazil,,0268-1606,756
431,6029,"Rau, Grant and Stokes",China,,68099-304,940
441,6076,"Friesen, Nikolaus and Stroman",China,,0904-6377,586
418,6039,Barrows LLC,Vietnam,,31720-303,463
446,6030,"Stracke, Vandervort and Mann",Portugal,,55319-535,515
424,6098,Gottlieb Group,Indonesia,,42851-030,202
481,6064,"Ernser, Stehr and Jacobi",Ecuador,,0456-2615,668
487,6099,"Wehner, Feest and Bode",Portugal,,0032-1101,821
486,6026,"Pollich, Jacobi and Jones",Serbia,,42914-001,601
409,6056,Beier Inc,China,,11822-5567,530
434,6029,Gulgowski Inc,Russia,,57955-2770,621
479,6052,Kessler LLC,China,,55154-2713,273
495,6100,"Swift, Hintz and Schiller",Burundi,,64616-092,571
465,6011,"Larson, Leffler and Buckridge",Indonesia,,52959-731,486
477,6028,"Osinski, Nitzsche and Russel",China,,63868-107,315
494,6057,"Treutel, Pfannerstill and Maggio",China,,0615-5589,380
442,6069,"Johns, Kris and Beer",Peru,,0074-3054,888
441,6039,Blick Group,Ukraine,,0472-1255,469
424,6088,"Cole, D'Amore and Stroman",Nigeria,,58665-001,371
499,6031,Lockman Inc,Czech Republic,,51079-764,921
446,6082,Thompson-Gerhold,Indonesia,,61570-032,781
475,6030,Jerde LLC,Portugal,,61715-112,700
418,6085,Wiza Inc,Mexico,,50111-851,736
433,6009,Deckow and Sons,Peru,,60429-770,257
422,6031,"Jones, Feil and Bins",Russia,,68327-012,67
482,6058,"Bayer, Gislason and Baumbach",China,,0168-0154,689
481,6071,Toy-Bosco,France,,68788-9837,60
400,6045,Gislason LLC,Ireland,,0069-0700,575
474,6051,Rolfson-Cummings,Philippines,,48951-1232,140
442,6070,Huels LLC,Portugal,,54868-5095,943
462,6090,Lebsack LLC,Indonesia,,43353-324,138
456,6083,Powlowski-Pollich,Brazil,,60512-6173,464
406,6087,Beier and Sons,Guatemala,,66428-005,59
453,6004,"Bernhard, Bruen and Bradtke",China,,0955-1725,669
474,6089,"Quigley, Gulgowski and Davis",Russia,,58930-013,233
478,6055,"Blanda, Boyer and Heathcote",Canada,,55319-626,37
408,6033,"Rowe, Moen and Russel",Philippines,,66129-412,27
469,6053,Strosin-Bergstrom,China,,50302-300,207
462,6019,"Gislason, Stiedemann and Haley",Taiwan,,60781-1004,588
452,6065,"Cartwright, Dach and Howe",Philippines,,62032-129,412
492,6038,Bogan and Sons,China,,30142-854,983
491,6098,Turner-Metz,Russia,,25021-806,531
457,6023,Pollich Group,Afghanistan,,52544-966,141
416,6075,Crist LLC,Russia,,52125-134,786
400,6049,"Sawayn, Parker and Hoeger",Philippines,,12823-400,532
427,6086,Daugherty-Kulas,Germany,,76237-112,471
498,6064,Cummings Group,China,,63629-5219,1
483,6072,"Mosciski, Windler and Schmitt",China,,44924-122,945
428,6012,Kihn LLC,South Africa,,50224-002,980
461,6041,"Bogisich, Hahn and Rodriguez",Poland,,51138-053,533
422,6097,Collier-Beatty,Serbia,,24338-300,197
446,6081,Bosco LLC,Sierra Leone,,0004-0802,785
434,6092,Schulist-Gaylord,China,,59417-102,547
473,6085,Collins-Lueilwitz,China,,0363-0872,452
409,6032,Emard-Smitham,Czech Republic,,0039-0067,348
433,6091,"Feeney, Muller and Nikolaus",Kiribati,,30142-939,480
467,6075,"Gleichner, Stoltenberg and Fritsch",Indonesia,,0009-5135,462
445,6013,Parker Group,Ivory Coast,,0268-0705,534
486,6098,Jacobs Inc,Brazil,,16714-221,984
493,6079,Morar-Kertzmann,Kosovo,,63304-499,439
431,6005,Mertz-Tremblay,Ukraine,,63629-4173,787
476,6088,Bradtke-Raynor,Philippines,,49288-0037,439
445,6002,Quigley Group,Indonesia,,49404-203,908
475,6065,"Denesik, Goyette and Ruecker",Philippines,,51346-006,410
434,6003,Wisoky and Sons,Russia,,51991-363,899
410,6053,Gleichner-Schmitt,Poland,,58876-107,353
433,6081,Stroman LLC,Greece,,65601-741,294
465,6086,Heidenreich LLC,Thailand,,65517-1013,710
446,6029,"Glover, Ortiz and Lind",Uruguay,,60949-100,400
434,6100,"Jerde, Jakubowski and Gulgowski",China,,59746-218,862
423,6050,Luettgen-Bauch,Philippines,,10742-8120,396
420,6079,VonRueden LLC,Brazil,,52605-014,727
423,6004,"Brown, Mosciski and Wolff",Serbia,,63717-910,834
484,6055,"Kessler, Schumm and Walsh",Russia,,13107-032,294
497,6006,Raynor-Runte,Indonesia,,53346-1345,735
476,6056,Casper Inc,Afghanistan,,54868-4186,157
430,6067,Kautzer LLC,Ukraine,,51079-443,299
430,6056,"Daniel, Parisian and Schinner",Pakistan,,52959-144,578
405,6041,Kulas-Sporer,Japan,,68151-2713,260
472,6042,O'Conner and Sons,Uganda,,65585-480,121
400,6062,"Ratke, Hauck and Bashirian",Spain,,0378-6440,450
494,6084,Bednar-Kuvalis,Russia,,59078-036,130
417,6000,Strosin and Sons,China,,65841-806,330
479,6094,"Kerluke, Halvorson and Heathcote",Portugal,,68306-105,561
473,6076,"Klein, Ullrich and McGlynn",Madagascar,,68788-9843,260
484,6093,"Hills, Jast and Ratke",Indonesia,,51201-101,86
455,6013,Hoppe Group,Indonesia,,60640-3694,14
472,6065,Bogan LLC,United States,,0008-0407,876
442,6030,Grant-Wiegand,Serbia,,0409-8183,712
474,6022,"Kutch, Lueilwitz and Hansen",China,,37205-641,702
461,6072,"Ebert, Blanda and Anderson",Poland,,57627-169,193
436,6082,Denesik-Ankunding,Poland,,50458-335,852
456,6075,"Raynor, Hackett and Koch",Croatia,,42507-074,909
477,6091,Morar and Sons,Portugal,,17156-614,852
464,6032,Schimmel and Sons,China,,64376-816,998
444,6066,Kub-Johnston,Serbia,,41250-704,346
459,6014,Wisoky and Sons,Greece,,47682-929,333
483,6076,Flatley Inc,Thailand,,15127-171,498
480,6090,Runolfsson LLC,France,,42291-720,80
411,6046,Funk Inc,Nigeria,,46122-173,630
417,6064,Herzog-Gerhold,Russia,,0363-0602,395
481,6034,"Koss, Ankunding and O'Reilly",Nigeria,,62037-524,515
413,6027,Berge-Hoppe,Togo,,51138-044,945
434,6068,Welch-Eichmann,Russia,,64141-814,549
478,6045,Spencer LLC,China,,68988-030,738
492,6044,"Dietrich, Franecki and Carter",Portugal,,0363-4193,598
439,6088,Swaniawski-Cummings,China,,0591-5382,315
437,6038,Bartoletti Inc,Armenia,,55154-5449,974
414,6075,"Romaguera, O'Conner and Corwin",Djibouti,,68169-4058,405
482,6087,"Jacobs, Gibson and Littel",China,,55926-0011,591
424,6078,Runolfsson Inc,Poland,,0555-1010,916
495,6020,"Senger, Hilll and Lesch",China,,16714-359,109
478,6057,"Dietrich, Stoltenberg and Kris",Indonesia,,59762-0540,210
489,6031,Rohan Inc,Indonesia,,55111-153,643
446,6050,"Runte, Kutch and Oberbrunner",Russia,,68745-1062,389
469,6038,"Schulist, Willms and Daugherty",Brazil,,50436-0597,243
490,6012,"Emard, Borer and Stokes",Ukraine,,59630-950,485
443,6007,Goodwin-Towne,Thailand,,55301-205,544
420,6038,"Haley, O'Hara and Macejkovic",Cuba,,50111-794,286
400,6065,Kilback-Kilback,China,,50387-300,883
476,6066,Kautzer-Wehner,Russia,,31722-544,923
433,6035,"Murazik, Pfannerstill and Prosacco",Philippines,,0007-4141,506
418,6074,Feest-Will,Panama,,68094-720,196
408,6046,Schaefer and Sons,Sweden,,0268-6318,549
464,6080,Thiel Group,China,,53942-505,645
497,6092,"Hartmann, Collins and Von",Thailand,,36800-394,717
424,6091,Lesch-Torphy,Indonesia,,54973-0609,35
491,6084,"Vandervort, Donnelly and Leannon",Indonesia,,48951-7113,691
488,6084,Erdman-Bins,Philippines,,0013-0132,549
433,6025,"Cruickshank, Legros and Denesik",Philippines,,6889-0312,627
493,6100,"Hegmann, Turner and Kautzer",France,,55154-5471,993
423,6007,Stark-Russel,United States,,42165-0002,864
495,6008,D'Amore Group,Philippines,,54569-3966,391
405,6026,Herzog Group,Indonesia,,55154-5625,88
480,6056,"Ebert, Rau and Beer",Nigeria,,49288-0198,822
455,6017,Pfannerstill Inc,Argentina,,55910-246,866
467,6088,Jerde-Quigley,South Africa,,63629-3760,835
486,6013,Kerluke-Purdy,Portugal,,44087-1116,659
494,6082,"Lehner, Koch and Murray",Brazil,,64205-745,782
425,6092,Purdy-Purdy,Thailand,,68084-175,761
416,6060,"Farrell, Daugherty and DuBuque",Nigeria,,0187-0003,307
450,6037,"Mueller, Funk and Schamberger",Venezuela,,0404-5988,115
442,6026,McGlynn Inc,Poland,,52584-482,293
432,6079,Beatty and Sons,Japan,,0113-0049,634
430,6090,"Davis, McDermott and Johnston",Madagascar,,48951-8117,146
415,6030,"Boehm, Waelchi and Larkin",Colombia,,10631-091,974
489,6022,Schroeder Group,Burkina Faso,,21695-018,814
484,6084,Schneider-Prohaska,Colombia,,0003-0894,160
462,6033,Beier LLC,South Africa,,57520-0243,837
416,6047,Gerlach and Sons,Iran,,21695-420,54
462,6065,"Bashirian, McClure and Cronin",Cameroon,,34362-0235,300
424,6086,"McDermott, Abbott and Haley",Ukraine,,10702-071,273
465,6041,"Dach, Abshire and Wehner",Brazil,,65224-560,847
465,6037,"Ziemann, Muller and Kertzmann",Portugal,,0268-0819,211
401,6009,Medhurst Group,United States,,57894-061,911
416,6096,Schneider-Buckridge,Indonesia,,0185-0707,207
405,6076,Kertzmann Group,Russia,,50730-5201,679
421,6082,"Williamson, Gutmann and Trantow",Australia,,49288-0694,292
497,6018,"Orn, Carroll and Stanton",Indonesia,,13537-416,309
402,6002,Hammes Group,China,,47682-809,533
412,6087,Rempel-Gleason,Indonesia,,17630-2004,972
478,6044,"Aufderhar, Kertzmann and Dibbert",China,,0703-9032,680
489,6018,Hilll LLC,Germany,,0054-8550,331
460,6068,"Altenwerth, Morar and Cassin",China,,49288-0107,51
433,6051,Reilly Inc,Ukraine,,0378-5041,498
444,6075,"Doyle, Bergstrom and Hudson",Indonesia,,57627-152,181
440,6022,Bashirian-Hyatt,Philippines,,51815-303,383
476,6017,Brakus-Schoen,Mexico,,49371-041,543
439,6041,Leffler-Stiedemann,Poland,,59630-485,738
463,6000,Gottlieb LLC,Central African Republic,,52686-252,589
445,6032,"Murphy, Littel and Hills",Portugal,,0065-0396,57
449,6066,Barrows-Deckow,Cuba,,50484-344,726
452,6061,"Lehner, Kulas and Eichmann",Albania,,55910-988,12
489,6036,"Cole, Sawayn and Ortiz",China,,0268-6529,325
415,6069,Denesik LLC,China,,37012-486,11
450,6013,Ryan-Davis,Uzbekistan,,41250-055,532
473,6039,"Okuneva, Waters and Gusikowski",Philippines,,54575-915,109
432,6051,O'Reilly-Bode,Indonesia,,42627-255,697
431,6058,"Bergnaum, Anderson and Lang",Dominican Republic,,47682-100,436
487,6078,Welch Group,Iraq,,0245-1073,42
449,6069,"Goldner, Bashirian and Kuphal",China,,67877-250,110
490,6070,"Crooks, Deckow and Towne",Japan,,0527-1351,512
436,6015,Kovacek-Flatley,Brazil,,55154-0734,508
477,6070,Emard-Ward,Peru,,36987-2016,745
419,6054,Smitham-Davis,Indonesia,,52862-314,242
401,6020,Yundt-Jacobson,Indonesia,,68828-113,872
424,6059,Heaney LLC,Portugal,,54340-810,481
453,6059,"Schamberger, Langosh and Lemke",United States,,55289-281,217
410,6026,Bailey-Huels,China,,49967-789,95
460,6081,Toy Inc,Mexico,,13537-034,831
410,6050,Willms Inc,Brazil,,76420-527,406
440,6009,Greenholt LLC,Ukraine,,68382-097,587
449,6019,"Hartmann, Beier and Morar",Philippines,,0555-0098,657
496,6033,Swaniawski Inc,Slovenia,,0904-6267,342
430,6011,"Homenick, Kuvalis and Hermiston",Canada,,29565-200,447
400,6065,Walker-Braun,Chile,,37205-677,570
469,6048,"Swaniawski, Kozey and Lakin",China,,54868-0375,582
401,6005,Beahan LLC,Indonesia,,49349-205,697
465,6032,Cremin-Stroman,Philippines,,36987-3102,451
480,6098,"Quigley, Quigley and Miller",Thailand,,10544-584,971
442,6003,"Beatty, Littel and Beahan",Indonesia,,46017-023,96
482,6076,"Bechtelar, Hudson and Nikolaus",Palestinian Territory,,58411-115,812
473,6057,Haley and Sons,France,,55154-5358,105
444,6097,"Huel, Hodkiewicz and Fritsch",Mauritius,,68196-479,870
465,6048,Paucek-Volkman,Sweden,,45014-131,307
482,6092,Bednar and Sons,Russia,,63824-160,850
430,6085,"Oberbrunner, Parker and Runte",Pakistan,,68747-6032,553
443,6019,"Hirthe, Goldner and Bayer",Indonesia,,54868-5656,672
474,6072,Terry-Kerluke,Belgium,,51393-6657,802
406,6038,Towne-Hand,Madagascar,,75921-125,616
412,6028,"Lang, Bailey and Cronin",Philippines,,0363-3790,280
475,6098,"Christiansen, Gleichner and Grant",Venezuela,,59779-303,20
483,6096,Hirthe Inc,China,,68989-575,72
445,6029,"Vandervort, Eichmann and Krajcik",China,,0054-4218,360
483,6038,Greenholt Inc,Thailand,,36987-1076,817
478,6070,Denesik-Barrows,China,,0113-0083,568
473,6036,Marquardt-Pacocha,China,,66993-463,961
436,6011,Schultz Group,Colombia,,36987-2041,916
475,6023,"Nader, Herzog and Botsford",Russia,,35356-007,133
466,6024,Heller-Funk,Brazil,,11444-185,527
482,6091,Kuhlman and Sons,France,,62670-4761,97
429,6063,Olson-Legros,Poland,,62257-585,869
401,6039,Brakus-Bergstrom,Finland,,64679-764,377
422,6015,"Nader, Douglas and Brown",Russia,,63402-515,539
497,6022,"Boyer, Hermann and Orn",Russia,,68462-383,588
451,6001,VonRueden Group,Philippines,,46581-480,935
498,6004,"Bauch, Langworth and Herman",Thailand,,60512-6506,950
453,6099,Grimes-Nicolas,Thailand,,52810-402,91
404,6041,"Stiedemann, Rowe and Bednar",Poland,,54569-1113,65
452,6087,O'Kon Group,Central African Republic,,50353-100,356
494,6086,Harber Inc,China,,43269-867,341
457,6055,Lebsack Inc,China,,55154-5325,403
473,6057,Hickle Inc,Cuba,,0462-0293,189
482,6074,Beier-Kulas,Philippines,,65517-1003,545
422,6011,Crona-Kshlerin,Norway,,51346-244,113
484,6031,"Boyer, Koss and Glover",Montenegro,,65862-465,457
400,6049,Lakin LLC,Peru,,0006-3801,285
407,6093,Jacobi Group,Philippines,,36987-1994,365
403,6033,Rodriguez-Huel,China,,68788-9679,92
474,6027,"Kutch, Rempel and Simonis",Portugal,,0641-6072,874
430,6087,Haley-Friesen,Cyprus,,36987-2832,32
411,6073,Raynor-Stoltenberg,Colombia,,68180-380,683
430,6019,Stoltenberg Inc,Honduras,,57627-152,883
455,6011,Connelly LLC,China,,60760-018,65
492,6035,Fisher-Lueilwitz,Chile,,16590-631,679
412,6020,Klocko-McLaughlin,Albania,,65162-679,806
451,6029,Reichel Inc,Rwanda,,0591-2790,224
403,6014,"Turcotte, Stracke and Roob",Bosnia and Herzegovina,,0781-1439,311
492,6090,"Schinner, Hayes and Ruecker",Belarus,,63629-4251,52
429,6079,"Frami, Predovic and Hoeger",Portugal,,52731-7012,60
414,6005,O'Connell-Trantow,Afghanistan,,67938-0772,279
476,6063,Hyatt-Rowe,Slovenia,,43063-403,117
411,6055,Jones-Kulas,United Kingdom,,16590-977,521
423,6095,"Ward, Auer and Gusikowski",Indonesia,,55154-6243,182
418,6053,Koss-Lehner,United States,,52374-101,312
442,6009,"Brakus, Glover and Ledner",Indonesia,,0904-6190,866
416,6059,Hyatt-Maggio,Indonesia,,59494-2001,950
478,6075,Leannon LLC,Sierra Leone,,37205-730,989
468,6034,"Orn, Gibson and Schoen",China,,0220-9352,44
416,6010,Terry Inc,France,,11509-5400,646
432,6028,Weber-Robel,Indonesia,,16729-246,390
483,6036,Gottlieb-Abbott,Brazil,,55154-2025,410
440,6096,Senger LLC,France,,55154-9373,775
437,6092,"Wilderman, Kunze and Yundt",China,,14783-243,755
458,6024,Bode LLC,Colombia,,42858-004,644
424,6080,Koss and Sons,Honduras,,13925-164,36
478,6076,Sauer-Cruickshank,Russia,,65923-001,571
427,6023,"Will, Hamill and Denesik",Guatemala,,43353-769,509
438,6082,Lockman-Kessler,Ukraine,,52686-322,185
432,6048,Gutkowski-Quitzon,Russia,,68382-019,867
423,6012,"Conroy, Bashirian and Kautzer",Indonesia,,64679-105,298
492,6059,"Heathcote, Wisozk and Reinger",Cape Verde,,33261-546,771
453,6094,Spinka-Aufderhar,United States,,43269-819,619
467,6045,Zemlak-Fay,China,,43353-578,680
414,6013,Grimes-Gottlieb,Thailand,,41163-390,319
443,6020,Kerluke-Shields,Indonesia,,10578-030,404
444,6086,"Douglas, Volkman and Nicolas",Brazil,,62037-695,181
480,6054,"Sporer, Ernser and Rowe",United States,,49349-289,829
478,6065,Pfannerstill-Homenick,Vietnam,,55154-6256,885
402,6052,Rolfson Group,China,,17478-503,421
458,6064,Wolf-Kertzmann,Turkmenistan,,0597-0165,774
433,6071,"Breitenberg, Ritchie and McClure",South Africa,,36987-1050,167
452,6090,"Kovacek, Cummerata and Hauck",Mexico,,63629-4980,799
446,6096,Strosin-Barrows,Indonesia,,0615-4596,972
462,6015,Davis Inc,Bulgaria,,54575-190,983
413,6079,"Cummings, Crist and Quitzon",North Korea,,57955-6058,145
438,6081,"Kihn, West and Rutherford",Guatemala,,68084-215,752
412,6072,"Friesen, Ritchie and Borer",French Polynesia,,10542-010,355
495,6051,Corkery-Hickle,France,,10678-001,939
492,6022,Hessel LLC,China,,59779-705,576
430,6067,Hand Group,Luxembourg,,30142-998,42
440,6072,"Marquardt, Schoen and Mayert",Kosovo,,53808-0835,162
469,6066,"King, Rodriguez and Aufderhar",Indonesia,,67877-249,363
476,6053,Ward-McKenzie,Indonesia,,43269-829,794
489,6000,"Ryan, Steuber and Harris",China,,42254-154,551
476,6076,Hauck-Rempel,China,,45984-0001,277
486,6093,Tillman LLC,Poland,,67510-0017,316
491,6008,Fadel LLC,China,,35356-892,684
483,6078,Kshlerin and Sons,Indonesia,,0026-3782,368
481,6082,"Farrell, Gleason and Hane",Russia,,49349-932,14
480,6064,Beier-Okuneva,Armenia,,68776-1005,801
473,6056,Nicolas LLC,Ukraine,,11673-807,138
491,6081,Auer-Heaney,Haiti,,36987-2995,982
435,6038,Mitchell Group,China,,42627-255,263
405,6027,Cremin-Russel,Indonesia,,41250-199,918
412,6020,"Renner, McLaughlin and Luettgen",Argentina,,52389-179,793
461,6094,O'Conner-McKenzie,Armenia,,42507-197,119
406,6022,Raynor Inc,Poland,,68645-483,314
497,6078,Bode-Kessler,Colombia,,67544-102,234
475,6057,"Hilpert, Abbott and Rath",Japan,,56062-619,328
424,6063,Hoppe-Sauer,Poland,,49288-0309,20
402,6089,Purdy Group,Russia,,61570-034,189
436,6093,Collins-Hartmann,Peru,,30142-798,128
469,6021,Kovacek-Bergstrom,China,,0179-0115,678
402,6039,Moore and Sons,Philippines,,54868-4548,766
450,6052,Price-Gulgowski,Yemen,,55111-638,599
440,6078,"Okuneva, Luettgen and Halvorson",Georgia,,49999-206,821
492,6074,Mante Inc,China,,49738-551,940
486,6003,Roob Inc,Philippines,,61047-771,995
491,6006,Johnston-Roob,France,,50383-705,759
450,6062,"Orn, Jenkins and Welch",China,,53942-406,95
489,6020,Lubowitz Inc,Czech Republic,,98132-740,449
466,6020,Farrell-White,Philippines,,0186-1092,262
458,6055,Bayer-Borer,Indonesia,,36987-2713,304
412,6045,DuBuque and Sons,Peru,,0904-6188,56
433,6001,Hoeger LLC,Tunisia,,54868-6213,60
464,6096,Lubowitz LLC,United States,,42806-058,580
423,6029,"Wolff, Dietrich and Wisozk",Colombia,,52007-140,957
465,6074,"Rath, Feeney and Moen",China,,68703-109,301
400,6035,"O'Keefe, Ruecker and Hirthe",Portugal,,36987-2039,641
435,6049,Botsford-Nolan,Indonesia,,30142-430,203
401,6035,"Sawayn, Stark and Carter",China,,55316-306,648
403,6005,Simonis-Swaniawski,Cuba,,42195-308,870
420,6018,Schmeler and Sons,Philippines,,0228-2631,231
426,6043,"Braun, Simonis and Pouros",Brazil,,21695-818,580
422,6048,Cronin-Gutkowski,China,,0268-0030,603
438,6028,Cummings-Heller,Portugal,,0268-6137,978
492,6089,"Bechtelar, Kunze and Bradtke",Poland,,41520-126,416
485,6060,Hammes Group,Philippines,,36987-1183,110
476,6036,Ward LLC,Sweden,,65044-3108,182
467,6071,"Rowe, Davis and Gorczany",Philippines,,0363-0332,38
454,6066,Okuneva-Emard,Sweden,,0378-0374,639
469,6022,Bode LLC,Philippines,,0268-0816,918
497,6089,Kuhic and Sons,North Korea,,49349-363,72
463,6050,Muller-Gleason,Germany,,64942-0675,535
442,6071,Schamberger-Veum,France,,68084-555,691
437,6014,Donnelly Group,Cuba,,64616-070,829
490,6018,Sawayn-Dibbert,Belarus,,76461-024,465
480,6021,Kohler-Altenwerth,Portugal,,50268-112,170
412,6031,Anderson and Sons,France,,49614-339,368
476,6077,Welch-Harber,Sweden,,44567-311,424
407,6080,"Bauch, Greenholt and Bauch",Malaysia,,0998-0315,276
479,6038,Metz LLC,Mexico,,55111-126,366
458,6015,Monahan Inc,China,,43742-0074,186
439,6038,Braun Inc,Russia,,31645-151,933
463,6048,Schiller-Rohan,China,,10578-038,592
448,6013,Lemke-Auer,Belarus,,33261-148,186
405,6046,Stroman LLC,Russia,,55316-094,222
404,6088,Greenholt-Collins,Indonesia,,0093-7303,579
456,6086,Wisozk-O'Conner,Ukraine,,49288-0289,621
431,6039,"Williamson, Orn and Johns",China,,66336-801,191
475,6036,Fritsch and Sons,Indonesia,,54868-4801,599
490,6009,"O'Keefe, Block and Osinski",China,,63739-478,59
418,6012,Sipes LLC,Mongolia,,27808-007,317
465,6066,"Hilpert, Schneider and Goyette",Poland,,33992-1100,769
494,6057,Feeney-Corwin,Brazil,,53346-1318,663
476,6006,"Walter, Lebsack and Renner",Colombia,,59667-0078,72
435,6070,"Spinka, Kozey and Bednar",Indonesia,,64578-0072,790
450,6078,Blanda-Schuppe,Russia,,49349-685,684
454,6006,"Wisoky, Flatley and Larson",Spain,,49035-080,189
476,6050,"McLaughlin, Hilpert and Cronin",Canada,,60505-6094,255
418,6050,Ryan and Sons,China,,35356-050,673
459,6083,Ryan-Schumm,Russia,,63304-905,797
483,6031,"Fadel, Pfannerstill and Raynor",United States,,49817-1986,55
468,6026,"Wolf, Schowalter and Torp",Indonesia,,53808-1048,847
443,6052,"Keeling, Bashirian and Hills",Russia,,76335-005,530
411,6025,Wilkinson Group,Guinea,,42126-6100,948
436,6034,"Runte, Ritchie and Herman",United States,,37012-742,310
456,6081,Jerde LLC,Myanmar,,53808-0911,456
441,6043,Feeney Group,Switzerland,,36987-1091,436
462,6011,"O'Keefe, Lueilwitz and Lubowitz",Malaysia,,44911-0035,888
405,6026,Simonis-Marvin,China,,23710-100,547
482,6026,Schulist and Sons,Indonesia,,68428-722,36
420,6009,Jacobi LLC,France,,0944-4351,278
481,6040,"Gleason, Daniel and Gorczany",Philippines,,64117-257,510
430,6022,Huel-Rath,China,,66336-429,345
478,6070,Schroeder LLC,Pakistan,,68084-185,624
456,6058,"Roberts, Sawayn and Walsh",Portugal,,62032-107,283
425,6035,Nikolaus Inc,China,,36800-330,90
411,6026,Aufderhar-Casper,South Africa,,63629-3807,166
479,6032,Torphy Group,China,,63481-439,195
424,6005,"Wuckert, Streich and Kshlerin",France,,61919-118,484
481,6022,"Quitzon, Kunze and Will",Russia,,58668-2591,397
450,6063,"Davis, White and Abernathy",Finland,,42808-100,786
468,6011,Sanford Group,Democratic Republic of the Congo,,0031-8715,157
470,6017,Toy and Sons,Indonesia,,49349-994,999
483,6019,"Larkin, Klein and Von",Iran,,63941-352,34
498,6026,"Beier, Kuhlman and Stoltenberg",Brazil,,0002-8315,832
462,6061,"Bayer, Dickinson and Baumbach",Afghanistan,,49580-0408,146
444,6035,Fahey-Miller,Portugal,,52584-652,848
478,6025,McDermott Inc,China,,41250-321,148
414,6055,"Wehner, Goodwin and McGlynn",Brazil,,49288-0112,470
472,6058,"Daniel, Hartmann and White",Syria,,47682-226,787
464,6070,Dietrich LLC,Brazil,,18754-062,204
495,6095,Monahan Inc,United States,,43063-147,538
458,6082,Turner-Cummerata,Yemen,,43538-160,667
492,6077,Metz-Lesch,Zimbabwe,,43742-0405,609
490,6053,Grant Inc,Peru,,0268-1098,585
430,6040,Toy LLC,Thailand,,53329-982,94
405,6026,Zboncak-Dibbert,Malawi,,62011-0055,522
485,6038,McCullough-O'Reilly,China,,65044-2631,663
445,6000,Labadie-Goldner,Indonesia,,12634-615,836
473,6004,"Turcotte, Jast and Bergstrom",Indonesia,,57955-5133,143
444,6041,Jacobi-Kshlerin,Tunisia,,68428-118,40
479,6050,"Marvin, Goyette and Sawayn",Indonesia,,65044-4402,602
453,6091,"Okuneva, Becker and Shanahan",China,,10812-204,401
441,6080,"Smith, Ortiz and Howell",Indonesia,,64525-0542,417
475,6006,"Flatley, Stanton and Langosh",Equatorial Guinea,,0781-2166,427
483,6035,"Leannon, Zieme and Morissette",Ukraine,,21695-254,307
450,6039,Ziemann-Daugherty,Saudi Arabia,,68382-266,778
420,6046,"Hoeger, Boyle and Hilll",Greece,,12634-256,59
478,6093,Terry Inc,Philippines,,63354-600,869
404,6050,"Kuphal, Conroy and Roberts",Democratic Republic of the Congo,,36800-160,344
457,6070,"Skiles, Connelly and Bartoletti",Honduras,,10135-492,64
451,6020,Ziemann LLC,Burkina Faso,,49230-212,16
484,6084,Moen-Pfeffer,Spain,,37000-406,898
435,6049,"Wintheiser, Schinner and Lind",Czech Republic,,0093-5347,118
446,6065,Durgan Group,China,,58118-0322,863
482,6013,"Kuhic, Cartwright and Trantow",Jamaica,,0574-3312,828
426,6049,Blick-Haley,Philippines,,0093-3109,995
468,6044,"Kulas, Padberg and Reichel",Russia,,52959-694,286
435,6048,Cummerata Inc,Argentina,,57716-001,563
496,6079,West Group,Democratic Republic of the Congo,,43547-257,312
439,6011,Schmidt LLC,Thailand,,51672-4030,285
468,6020,Farrell Group,Tanzania,,63629-5366,840
407,6097,"Weimann, Paucek and Heaney",Brazil,,42254-248,21
470,6007,Gulgowski LLC,Syria,,76119-5306,206
424,6047,Gislason and Sons,Russia,,0268-1436,903
425,6083,Brakus-Spinka,China,,54868-5505,173
476,6026,Pfannerstill-Huel,China,,54868-0066,472
421,6005,Greenholt Inc,Argentina,,37205-022,368
455,6025,Paucek-Gottlieb,Philippines,,0268-6121,412
482,6045,Hilll-Jacobson,Indonesia,,0703-1985,260
474,6013,Welch Group,Saudi Arabia,,0264-7578,702
486,6087,Wilderman-Kulas,Philippines,,63347-800,261
428,6000,"Lind, Hane and Grimes",Colombia,,49999-763,543
481,6017,Schulist Group,China,,36987-1562,270
411,6050,"Farrell, Watsica and Kirlin",United States,,57850-0001,154
447,6048,Parisian-Skiles,Serbia,,55312-219,54
437,6039,"Effertz, Koelpin and Stokes",Pakistan,,59741-101,609
443,6100,Doyle Group,Brazil,,59779-034,444
438,6035,Champlin-Kunze,Indonesia,,66215-302,163
430,6097,Kunde-Hudson,Russia,,36800-359,713
410,6090,Konopelski-Swaniawski,Brazil,,48951-3050,60
472,6022,Hamill-Considine,Ukraine,,50988-407,754
419,6004,"Ondricka, Boyer and Stehr",Argentina,,62756-310,667
410,6095,Schmeler and Sons,China,,0924-5603,747
488,6084,"Daniel, Witting and Stokes",France,,49349-630,955
441,6066,Wunsch and Sons,France,,58407-624,577
427,6020,"Kub, Weber and Douglas",Poland,,48951-0078,413
432,6071,Williamson Inc,China,,0115-1208,361
477,6075,Oberbrunner LLC,Indonesia,,0078-0323,866
424,6034,"Koepp, Barrows and Torphy",Indonesia,,0781-5020,226
476,6069,Hamill-Jast,Colombia,,66689-790,186
465,6015,Graham-Mills,Greece,,0093-0148,117
467,6041,Braun Inc,Philippines,,52533-097,252
407,6039,Weber LLC,China,,0268-1076,802
425,6014,"Jast, Breitenberg and Gusikowski",Indonesia,,61924-102,870
479,6031,Kautzer-Nienow,Mexico,,57520-0584,302
485,6002,McGlynn LLC,Mexico,,47335-588,316
458,6058,Gleason-Beer,United States,,62337-415,285
489,6089,"Nicolas, Hoeger and Kirlin",China,,57910-300,880
479,6038,"O'Conner, Ziemann and Jacobs",Russia,,36987-2063,323
436,6023,Homenick-Wilderman,Vietnam,,59762-4900,216
435,6034,Pfeffer-Sauer,Greece,,45802-419,784
471,6064,Kshlerin LLC,Russia,,49738-005,618
426,6000,Shields-Conn,Philippines,,53499-0393,57
488,6019,Kihn and Sons,Russia,,49349-727,20
429,6074,Larkin-Runte,Philippines,,53729-0001,993
459,6048,"Steuber, Carroll and Kshlerin",Tunisia,,0440-7483,608
464,6041,Predovic and Sons,Indonesia,,68968-6637,191
489,6084,Ziemann-Lemke,Indonesia,,68151-4474,489
483,6025,Pouros-Wisoky,Pakistan,,52584-273,666
435,6047,Kuhic Group,Philippines,,11523-7350,819
407,6073,Von-Wehner,China,,49288-0425,803
468,6028,Ledner Group,Indonesia,,52490-200,438
420,6016,Lemke Group,Poland,,62011-0048,941
465,6033,Roberts-Donnelly,Indonesia,,50111-434,248
424,6053,Kemmer-Russel,Indonesia,,0006-4995,507
453,6076,"Effertz, Beer and Konopelski",Greece,,10544-005,114
412,6084,Gerlach-Bergstrom,Canada,,30698-423,679
495,6096,Sanford Inc,Sweden,,64942-1199,67
450,6000,Doyle LLC,Peru,,65044-2359,462
460,6100,Blick-Klein,Indonesia,,59779-085,754
418,6064,Bahringer-Howe,Sweden,,48951-1128,620
414,6050,"Mertz, Pfannerstill and Stanton",Indonesia,,55154-5650,853
430,6023,"Wiegand, Altenwerth and Gleason",Albania,,36987-1938,206
473,6082,Kuphal and Sons,Tanzania,,64455-107,969
414,6044,"Daugherty, Graham and Marks",Sweden,,52959-557,928
458,6086,"Wyman, Rau and Stehr",Poland,,41250-872,20
492,6099,"Erdman, Koch and Runolfsson",United States,,57520-0840,400
467,6007,Balistreri Inc,Poland,,49967-907,874
471,6066,Ebert-Senger,France,,59923-603,420
457,6090,Bruen and Sons,China,,66969-6015,537
401,6049,Langosh-Crist,Ireland,,15127-730,862
447,6063,"Little, Douglas and Stroman",China,,30142-103,831
471,6010,Lynch Group,Russia,,68462-292,700
443,6096,Kuvalis-Bartoletti,Germany,,50436-4634,418
407,6033,"Ledner, Crooks and Mertz",China,,48951-8221,317
494,6077,Bechtelar-Bogisich,Czech Republic,,53808-0902,632
468,6078,Keeling Group,Guinea,,50191-0001,345
425,6046,Bailey Inc,Kyrgyzstan,,62225-600,680
405,6004,Sipes-Rogahn,China,,55289-609,620
442,6094,Heller-Streich,Russia,,63868-966,673
438,6051,Nikolaus LLC,Syria,,16590-622,950
474,6027,O'Keefe-Kihn,Thailand,,63824-333,19
426,6001,Goodwin-Hackett,Russia,,52125-063,457
450,6025,"Cormier, Gleason and Yundt",Central African Republic,,41163-386,268
483,6043,"Purdy, Altenwerth and Corkery",Japan,,55714-4459,617
435,6079,Zboncak-Okuneva,China,,58160-812,543
479,6035,Farrell Inc,Brazil,,62111-0210,296
400,6064,Smitham and Sons,Poland,,63629-5437,995
423,6073,Hagenes Group,China,,0299-3822,311
438,6034,"Hilpert, Leuschke and Olson",Greece,,16590-453,213
457,6078,Braun Group,Czech Republic,,64058-615,702
465,6030,Gutkowski LLC,Cayman Islands,,0781-5555,292
461,6097,Tillman-Labadie,Canada,,49349-335,425
488,6083,McCullough Group,Serbia,,51442-546,848
436,6044,Schultz-Rohan,Serbia,,36987-3237,482
464,6045,Mueller-Kassulke,Thailand,,63181-0012,227
454,6028,Schuppe-Nitzsche,Poland,,55289-443,67
415,6007,Ernser Inc,Norway,,62756-554,240
478,6008,Dietrich and Sons,Cameroon,,15062-003,314
483,6086,Denesik and Sons,Thailand,,36987-1959,581
462,6066,Stark-Erdman,Thailand,,55154-0109,445
400,6074,Kerluke-Turner,Denmark,,54569-0826,399
470,6084,Doyle LLC,Philippines,,49730-111,664
481,6057,"Gusikowski, Smitham and Quigley",Brazil,,65841-687,916
415,6033,Wilderman and Sons,Czech Republic,,13668-185,437
410,6053,Schaefer Inc,Israel,,13845-1202,866
477,6054,Bins Group,Canada,,11523-7250,65
492,6044,Schamberger-Cremin,China,,21130-271,687
444,6013,Fadel-Hagenes,Brazil,,24236-168,425
492,6031,Rippin LLC,Syria,,64117-287,526
437,6008,"Erdman, Hilpert and Gaylord",Philippines,,36987-2789,296
478,6049,Bednar and Sons,China,,68084-437,488
483,6062,Carroll-Abbott,Portugal,,35000-163,997
407,6080,"Labadie, Lesch and Ziemann",Russia,,61722-081,866
403,6096,"Hyatt, Stehr and Deckow",Cuba,,62802-206,225
428,6078,"Daniel, Treutel and Hane",Honduras,,36800-580,422
462,6016,"Quigley, Kohler and Krajcik",Greece,,63824-018,366
475,6032,"Buckridge, Schowalter and Hermann",Comoros,,0409-4332,511
433,6064,"Schaefer, Mertz and Aufderhar",Indonesia,,36987-2919,485
441,6033,Mertz LLC,Thailand,,35356-173,378
455,6084,"Boyer, Dickens and Greenholt",Russia,,45802-327,359
466,6089,Gottlieb Inc,Brazil,,66336-635,491
495,6000,"Batz, Gutmann and Streich",Czech Republic,,0404-0360,18
400,6067,Mann LLC,Ireland,,52125-933,825
494,6024,Blick Inc,Mexico,,10237-704,696
460,6039,Kshlerin-Weimann,Cambodia,,0409-6729,135
417,6092,Denesik and Sons,France,,61699-3182,622
430,6024,"Walsh, Bednar and Bauch",Indonesia,,64942-1147,172
477,6007,Wolf-Keeling,Indonesia,,68788-9545,591
460,6083,Bechtelar-Crist,Indonesia,,49288-0860,828
437,6078,"Cruickshank, Shanahan and Wisozk",China,,0363-9030,493
465,6025,"Jacobs, Goodwin and Lynch",Indonesia,,63739-285,144
454,6022,Baumbach LLC,France,,62011-0123,119
468,6067,"Bergstrom, Turner and Gutmann",Philippines,,16571-012,134
429,6068,Kshlerin-Dooley,Nigeria,,75854-312,211
414,6042,Brown LLC,Philippines,,24488-005,493
445,6058,"Hintz, Satterfield and Wiza",Poland,,16590-102,404
473,6030,Dickinson Inc,Poland,,64588-0001,817
486,6010,Hessel LLC,Brazil,,61995-2102,73
460,6052,O'Connell Inc,Jordan,,0093-7384,470
457,6035,"Schuster, Bauch and Hintz",China,,58291-0011,83
446,6073,Gorczany-Bernier,Russia,,68752-025,493
412,6063,Reynolds-Sporer,Ukraine,,50066-002,361
474,6060,Braun-Eichmann,China,,65517-0004,641
415,6062,Stokes Group,Greece,,68682-706,458
451,6099,Fay LLC,Poland,,42291-377,473
494,6089,Reichel-O'Reilly,Portugal,,0179-0015,636
437,6081,"Corkery, Brekke and Mayert",Russia,,53598-003,896
449,6053,Skiles and Sons,China,,66993-052,59
423,6008,"Stokes, Langworth and Hauck",Latvia,,55648-744,468
488,6044,Spencer-Mante,Japan,,52125-283,487
426,6099,Rutherford-Ernser,China,,43406-0050,911
492,6049,Langworth-Predovic,Brazil,,50419-454,165
409,6027,"Botsford, Terry and Schoen",Brazil,,55651-008,876
484,6062,Boyle Inc,Costa Rica,,55910-823,940
469,6064,"Ward, Jenkins and Barton",Norway,,57520-0090,715
468,6024,"Langosh, Terry and Schuppe",Greece,,61957-0530,672
485,6049,"Huel, Champlin and Brekke",Peru,,57237-021,14
498,6056,"Ullrich, Ruecker and Fadel",Portugal,,43979-439,878
497,6043,"Reichel, Windler and Bayer",France,,11673-061,1000
424,6088,Orn-Murazik,Panama,,0338-6347,445
472,6059,Christiansen and Sons,Mongolia,,35356-050,297
460,6018,Bernier Inc,Laos,,61589-1822,19
419,6050,"Johnston, Flatley and Parker",Indonesia,,54202-001,444
404,6036,Weimann Group,Greece,,0378-2180,651
448,6085,"Grant, Kris and Parisian",Indonesia,,10956-761,639
436,6072,VonRueden and Sons,China,,55154-6983,281
475,6024,"Zulauf, Halvorson and Harris",Greece,,49349-426,252
493,6010,Armstrong Inc,Brazil,,17478-704,649
443,6059,Kunze-Olson,Indonesia,,41167-0574,397
454,6018,Sawayn-Dickinson,South Korea,,0187-5198,607
425,6063,Walsh-Wunsch,China,,57955-2050,42
407,6062,Runte-Keebler,Albania,,0270-0445,113
414,6091,Windler-Altenwerth,Brazil,,10742-8564,654
476,6011,"Bednar, Emmerich and Schiller",Portugal,,64578-0104,626
452,6036,"Ankunding, Ledner and Reichert",Argentina,,54868-5126,873
487,6029,Zieme LLC,China,,61589-5311,435
489,6057,"Lang, Roob and Bruen",Colombia,,0904-5304,431
421,6003,"O'Hara, Ward and Kassulke",Philippines,,54569-0172,232
448,6087,Ebert Inc,Philippines,,51769-125,899
459,6043,Brekke and Sons,Indonesia,,0135-0230,481
469,6038,"Wolf, Upton and Wisoky",Russia,,53808-0624,702
448,6045,Zemlak-Friesen,Indonesia,,62191-012,166
471,6042,"Hessel, Okuneva and Konopelski",Indonesia,,11822-0450,717
439,6050,"D'Amore, Eichmann and Armstrong",China,,35356-745,36
430,6003,Beatty-MacGyver,Sweden,,0121-1744,937
436,6005,Lang-Sipes,Norway,,65028-005,370
402,6072,Casper and Sons,Poland,,0069-9144,336
444,6017,"Renner, Quigley and Crooks",Bulgaria,,54868-1223,12
422,6081,Mohr LLC,China,,23155-219,261
439,6070,Kirlin and Sons,China,,54575-929,391
494,6079,Legros-Spinka,Philippines,,67938-1390,39
426,6047,"White, Dooley and Stiedemann",Senegal,,55154-4707,748
499,6058,Dooley Group,Peru,,68196-041,43
426,6050,Abbott-Gislason,Portugal,,48951-9038,42
499,6076,Schroeder and Sons,China,,53145-303,752
463,6045,Bahringer Group,Swaziland,,98132-711,800
460,6001,Herzog LLC,Morocco,,52959-122,227
411,6035,Marquardt and Sons,Poland,,62584-734,610
478,6089,Schoen-Nitzsche,Philippines,,52125-597,157
451,6095,"Labadie, Huel and Nikolaus",Canada,,53808-0536,552
422,6063,Moore LLC,Lithuania,,76119-1445,325
447,6027,Gottlieb Group,Eritrea,,76218-1215,3
434,6037,"Buckridge, Leuschke and Kilback",Bosnia and Herzegovina,,54569-5964,877
490,6002,"Murazik, Prohaska and Jones",Russia,,55154-0457,457
480,6064,Padberg Group,Greece,,0185-0410,520
498,6029,West and Sons,China,,64942-1125,102
476,6023,Roob-Weimann,Serbia,,55111-343,20
446,6032,Kutch-Johnston,Bulgaria,,54575-218,565
422,6069,"Olson, Altenwerth and Yundt",Australia,,68084-204,444
485,6049,Ortiz-Nolan,Spain,,22700-134,635
471,6078,Bergstrom and Sons,Brazil,,57520-0528,820
449,6018,"Beahan, Hegmann and Botsford",China,,67457-382,526
434,6037,Heathcote and Sons,Indonesia,,50988-191,52
480,6010,Denesik-Koelpin,Cuba,,0031-8715,92
420,6094,"Gibson, Cole and Moore",Ukraine,,36800-090,948
461,6012,"Medhurst, Gutkowski and Dickinson",Thailand,,36987-1876,247
455,6082,"Hand, Schaefer and Windler",France,,53185-002,218
438,6077,Considine LLC,Poland,,10812-335,525
401,6097,Little-Mraz,Greece,,60429-934,807
401,6001,"Wisozk, Boyle and O'Reilly",China,,52763-401,336
439,6020,Balistreri Group,Ethiopia,,36987-1854,665
447,6023,"Tromp, Medhurst and Mraz",Indonesia,,68258-6969,278
479,6059,"Powlowski, Muller and Sipes",Czech Republic,,37000-452,938
448,6092,Schoen Inc,Indonesia,,37205-729,495
441,6088,"Batz, Dare and Hayes",Aland Islands,,63843-487,951
402,6069,Padberg Group,China,,49404-103,987
414,6001,"Bosco, Nitzsche and Johnston",China,,36987-1543,451
457,6085,Ankunding-O'Conner,France,,17478-263,472
445,6052,Raynor-Dietrich,Russia,,48951-7052,407
420,6037,Satterfield LLC,Bangladesh,,53009-1001,601
469,6095,"McClure, Romaguera and Wintheiser",Indonesia,,49288-0324,74
483,6092,Smith-Reilly,China,,64205-104,967
418,6042,"Gottlieb, Champlin and Bednar",Serbia,,76354-015,545
464,6008,"Hane, Cartwright and Price",Finland,,62778-118,899
491,6031,Hintz-O'Conner,Indonesia,,61715-081,384
437,6061,"Jacobs, Osinski and Bashirian",Thailand,,0049-3960,291
427,6009,Langosh Inc,Czech Republic,,68828-162,452
419,6028,"Price, Zboncak and O'Keefe",Indonesia,,50114-8502,561
426,6085,Beier-Marks,Malaysia,,57520-0637,898
444,6047,"Schmidt, Ankunding and Koch",China,,13537-530,214
485,6024,"Von, Kassulke and Grant",China,,42637-823,242
413,6050,Hahn LLC,Philippines,,0006-3917,259
409,6062,Dietrich Inc,Ukraine,,54868-0548,585
422,6056,Ondricka-Rodriguez,Tanzania,,33261-520,347
478,6011,Eichmann Group,North Korea,,0228-2539,459
455,6002,Marquardt-Cole,Argentina,,57520-0518,831
402,6032,Ledner Group,United States,,11084-116,398
403,6088,Gaylord and Sons,Russia,,0049-5730,875
496,6094,O'Kon-Reinger,Indonesia,,55111-162,627
406,6094,Emard Inc,Thailand,,41163-090,760
465,6090,"Nikolaus, Ullrich and DuBuque",Ukraine,,16913-0001,300
448,6068,Stokes and Sons,Sweden,,14783-256,647
432,6045,Hilll-O'Hara,Peru,,26509-0007,553
435,6055,Beatty-Glover,Peru,,58194-002,214
492,6000,Johnson-Conroy,United Kingdom,,55714-1700,775
406,6068,Botsford Group,China,,68016-142,757
494,6033,Mante and Sons,Chile,,0264-2514,148
418,6033,Carter-Morissette,United States,,0407-1414,544
429,6091,"Sipes, Klocko and Kihn",Portugal,,50563-154,766
464,6054,Abshire-Hirthe,Tunisia,,75944-100,330
409,6047,Collier Group,Colombia,,49349-890,762
423,6086,"Runte, Balistreri and Thompson",Ukraine,,51769-123,572
453,6038,"Koss, McCullough and Mayer",Philippines,,54482-020,819
434,6049,Feest-Cremin,Malaysia,,51668-509,887
495,6050,Senger-Walker,China,,65517-1018,859
485,6059,"Dickinson, Wuckert and Boyle",Thailand,,50509-100,597
410,6034,Fadel and Sons,Argentina,,11822-2108,826
464,6040,Mayert Inc,Russia,,64942-1266,765
484,6012,"Eichmann, Daugherty and Champlin",Central African Republic,,10237-646,433
436,6013,Kutch-Hahn,Argentina,,49999-621,690
490,6051,Lockman and Sons,China,,65862-608,420
407,6081,"Sipes, Hettinger and Ruecker",China,,53808-0277,655
475,6020,"Klein, Medhurst and Sipes",China,,11489-070,46
433,6054,Homenick-Bruen,Netherlands,,36987-2361,68
477,6014,"Ortiz, Feest and Rippin",Portugal,,42291-698,943
453,6020,Mitchell Group,Greece,,10237-735,340
403,6015,Zieme-Bogisich,Brazil,,68343-001,952
443,6007,Bergstrom Group,Palestinian Territory,,0113-0345,209
469,6021,Abbott-Leannon,China,,54868-6275,209
465,6053,"Lehner, Dare and Hansen",Sweden,,68405-032,579
484,6073,Stroman Inc,Thailand,,57337-054,933
413,6097,"Roberts, Roberts and Funk",Iran,,55154-7464,841
457,6088,"Kuphal, Hudson and Schmeler",France,,68084-199,586
402,6083,Flatley Inc,Indonesia,,0378-1400,65
400,6073,Predovic-Volkman,Papua New Guinea,,42507-224,486
496,6014,Lindgren Inc,Peru,,50436-4605,623
404,6039,Kovacek LLC,China,,36800-255,516
458,6090,Gislason-Dicki,Yemen,,49580-0300,67
475,6064,O'Reilly LLC,Poland,,49348-083,25
466,6005,Parker Group,United States,,48883-005,530
490,6057,Cremin and Sons,Mongolia,,15304-4085,147
434,6074,Treutel-Pollich,Colombia,,55289-909,549
409,6078,Robel-Tremblay,China,,36000-008,982
476,6098,"Simonis, Lockman and Turcotte",Philippines,,0002-8215,696
435,6026,"Satterfield, Kirlin and Conroy",Philippines,,55154-6213,331
409,6033,Klein LLC,Portugal,,98132-132,3
408,6086,"Champlin, Rowe and Koch",Venezuela,,64942-1189,295
402,6093,"Parisian, Wiegand and Green",Philippines,,59535-8701,479
444,6099,Rohan-Breitenberg,Indonesia,,0597-0101,282
400,6042,Hahn LLC,Japan,,36987-1369,491
499,6011,"Ziemann, Bednar and Carter",Lebanon,,0087-6060,948
